SCD 1                   
1 22490U 93009B   26178.23279476  .00000390  00000+0  55544-4 0  9990
2 22490  24.9682 145.5483 0041649 244.1491 138.4681 14.46122241762574
TECHSAT 1B (GO-32)      
1 25397U 98043D   26177.96864711  .00000060  00000+0  46233-4 0  9992
2 25397  99.0071 170.9741 0001545 144.7408 215.3872 14.24430194452726
SCD 2                   
1 25504U 98060A   26177.91426882  .00000371  00000+0  52684-4 0  9991
2 25504  24.9967  12.1724 0016595 225.4940 269.5872 14.45529214461731
DLR-TUBSAT              
1 25757U 99029B   26178.21361756  .00000097  00000+0  35709-4 0  9993
2 25757  98.6698 174.0477 0013476 323.7410  36.2870 14.52429171434705
TERRA                   
1 25994U 99068A   26178.15313075  .00000367  00000+0  83645-4 0  9995
2 25994  97.9451 227.3041 0002367 161.0698 261.3085 14.61110434411066
MAROC-TUBSAT            
1 27004U 01056D   26178.08867593 -.00000017  00000+0  33427-4 0  9996
2 27004  99.8086 355.1349 0020556 116.6949 355.5040 13.70262875227542
AQUA                    
1 27424U 02022A   26178.18764340  .00000796  00000+0  16807-3 0  9998
2 27424  98.4281 147.6705 0000769  66.5600  23.6164 14.62172482284731
SHIYAN-1 (SY-1)         
1 28220U 04012A   26178.16473705  .00015311  00000+0  46738-3 0  9999
2 28220  97.8697 256.8824 0004729 356.5732   3.5476 15.34008887212622
AURA                    
1 28376U 04026A   26178.18829094  .00000776  00000+0  16683-3 0  9999
2 28376  98.3421 134.7245 0001170  83.3664 276.7669 14.61343374167676
IRS-P5 (CARTOSAT-1)     
1 28649U 05017A   26178.07739390  .00001512  00000+0  15801-3 0  9990
2 28649  97.5305 200.6932 0002306  67.7089 292.4375 14.91073788145291
SINAH 1                 
1 28893U 05043D   26178.16835204  .00000330  00000+0  72180-4 0  9992
2 28893  98.2871 312.5496 0013292 242.5406 117.4445 14.64164039101980
RESURS-DK 1             
1 29228U 06021A   26178.08293926  .00002392  00000+0  14026-3 0  9996
2 29228  69.9337 313.9373 0006751 287.1987  72.8440 15.13256263104073
ARIRANG-2 (KOMPSAT-2)   
1 29268U 06031A   26178.20815280  .00000165  00000+0  39500-4 0  9999
2 29268  97.8309   2.1701 0015596  45.6946  65.2388 14.64665224 62949
LAPAN-TUBSAT            
1 29709U 07001A   26178.15301814  .00000932  00000+0  11322-3 0  9997
2 29709  98.1342 177.6015 0012796 147.6352 212.5649 14.85960195 52639
HAIYANG-1B              
1 31113U 07010A   26178.21330992  .00000097  00000+0  52536-4 0  9990
2 31113  98.3499 159.6698 0013690 166.3579 193.7977 14.31029303  2071
COSMO-SKYMED 1          
1 31598U 07023A   26178.16042984  .00002969  00000+0  26225-3 0  9991
2 31598  97.8860  10.1003 0001786  88.7581 271.3845 14.97152827 31280
TERRASAR-X              
1 31698U 07026A   26177.61088571  .00000881  00000+0  45155-4 0  9991
2 31698  97.4450 185.1818 0001614  89.1456 270.9963 15.19154138 54659
WORLDVIEW-1 (WV-1)      
1 32060U 07041A   26178.20451339  .00006542  00000+0  27000-3 0  9992
2 32060  97.3883 297.8048 0001292 342.1421  17.9771 15.24373133 44406
YAOGAN-3                
1 32289U 07055A   26178.19528177  .00002031  00000+0  21207-3 0  9995
2 32289  97.8154 207.9746 0001818  81.2350 278.9074 14.90818968  7369
COSMO-SKYMED 2          
1 32376U 07059A   26178.22011042  .00000482  00000+0  67113-4 0  9993
2 32376  97.8888   1.6726 0001345  88.5095 271.6272 14.82153265  3491
RADARSAT-2              
1 32382U 07061A   26178.18358638  .00000107  00000+0  58505-4 0  9992
2 32382  98.5778 184.9731 0001309  85.5744 274.5588 14.29984065967383
CARTOSAT-2A             
1 32783U 08021A   26178.19302564  .00000784  00000+0  11215-3 0  9999
2 32783  97.7633 226.5602 0013360  79.9851 280.2868 14.79253471980289
HUANJING 1A (HJ-1A)     
1 33320U 08041A   26178.21296735  .00001502  00000+0  18589-3 0  9994
2 33320  97.6682 163.6637 0020562 103.9337 256.4166 14.84009946959899
HUANJING 1B (HJ-1B)     
1 33321U 08041B   26178.18661454  .00001225  00000+0  15402-3 0  9998
2 33321  97.6517 166.7797 0036958 148.3040 212.0410 14.83333293959892
GEOEYE 1                
1 33331U 08042A   26178.19397073  .00000454  00000+0  94382-4 0  9992
2 33331  98.1335 251.9998 0005233  40.7308 319.4285 14.64634736951610
THEOS                   
1 33396U 08049A   26178.18494803 -.00000060  00000+0 -85104-5 0  9996
2 33396  98.5573 235.1440 0001188  82.4740 277.6572 14.20134376919382
COSMO-SKYMED 3          
1 33412U 08054A   26178.16948789  .00003764  00000+0  25522-3 0  9994
2 33412  97.8269  36.9061 0014461 229.8292 130.1669 15.07005931958448
YAOGAN-4                
1 33446U 08061A   26178.08408644  .00001012  00000+0  13028-3 0  9993
2 33446  97.9307 111.5212 0015315  43.0462 317.1947 14.83218553947130
GOSAT (IBUKI)           
1 33492U 09002A   26178.22931581 -.00000074  00000+0 -45761-5 0  9997
2 33492  98.0901 289.1852 0001328  83.2646 276.8710 14.67538212932934
DEIMOS-1                
1 35681U 09041A   26178.22473789  .00000700  00000+0  11057-3 0  9996
2 35681  97.7409 335.0176 0002229 117.7731 242.3705 14.75247770908361
DUBAISAT-1              
1 35682U 09041B   26177.92465309  .00000884  00000+0  13843-3 0  9990
2 35682  98.0061 311.0761 0011262  45.6095 314.6034 14.75138299906533
