OBJECT_NAME,OBJECT_ID,EPOCH,MEAN_MOTION,ECCENTRICITY,INCLINATION,RA_OF_ASC_NODE,ARG_OF_PERICENTER,MEAN_ANOMALY,EPHEMERIS_TYPE,CLASSIFICATION_TYPE,NORAD_CAT_ID,ELEMENT_SET_NO,REV_AT_EPOCH,BSTAR,MEAN_MOTION_DOT,MEAN_MOTION_DDOT
SCD 1,1993-009B,2026-06-27T05:35:13.467264,14.46122241,.0041649,24.9682,145.5483,244.1491,138.4681,0,U,22490,999,76257,.55544E-4,.39E-5,0
TECHSAT 1B (GO-32),1998-043D,2026-06-26T23:14:51.110304,14.24430194,.0001545,99.0071,170.9741,144.7408,215.3872,0,U,25397,999,45272,.46233E-4,.6E-6,0
SCD 2,1998-060A,2026-06-26T21:56:32.826048,14.45529214,.0016595,24.9967,12.1724,225.4940,269.5872,0,U,25504,999,46173,.52684E-4,.371E-5,0
DLR-TUBSAT,1999-029B,2026-06-27T05:07:36.557184,14.52429171,.0013476,98.6698,174.0477,323.7410,36.2870,0,U,25757,999,43470,.35709E-4,.97E-6,0
TERRA,1999-068A,2026-06-27T03:40:30.496800,14.61110434,.0002367,97.9451,227.3041,161.0698,261.3085,0,U,25994,999,41106,.83645E-4,.367E-5,0
MAROC-TUBSAT,2001-056D,2026-06-27T02:07:41.600352,13.70262875,.0020556,99.8086,355.1349,116.6949,355.5040,0,U,27004,999,22754,.33427E-4,-.17E-6,0
AQUA,2002-022A,2026-06-27T04:30:12.389760,14.62172482,.0000769,98.4281,147.6705,66.5600,23.6164,0,U,27424,999,28473,.16807E-3,.796E-5,0
SHIYAN-1 (SY-1),2004-012A,2026-06-27T03:57:13.281120,15.34008887,.0004729,97.8697,256.8824,356.5732,3.5476,0,U,28220,999,21262,.46738E-3,.15311E-3,0
AURA,2004-026A,2026-06-27T04:31:08.337216,14.61343374,.000117,98.3421,134.7245,83.3664,276.7669,0,U,28376,999,16767,.16683E-3,.776E-5,0
IRS-P5 (CARTOSAT-1),2005-017A,2026-06-27T01:51:26.832960,14.91073788,.0002306,97.5305,200.6932,67.7089,292.4375,0,U,28649,999,14529,.15801E-3,.1512E-4,0
SINAH 1,2005-043D,2026-06-27T04:02:25.616256,14.64164039,.0013292,98.2871,312.5496,242.5406,117.4445,0,U,28893,999,10198,.7218E-4,.33E-5,0
RESURS-DK 1,2006-021A,2026-06-27T01:59:25.952064,15.13256263,.0006751,69.9337,313.9373,287.1987,72.8440,0,U,29228,999,10407,.14026E-3,.2392E-4,0
ARIRANG-2 (KOMPSAT-2),2006-031A,2026-06-27T04:59:44.401920,14.64665224,.0015596,97.8309,2.1701,45.6946,65.2388,0,U,29268,999,6294,.395E-4,.165E-5,0
LAPAN-TUBSAT,2007-001A,2026-06-27T03:40:20.767296,14.85960195,.0012796,98.1342,177.6015,147.6352,212.5649,0,U,29709,999,5263,.11322E-3,.932E-5,0
HAIYANG-1B,2007-010A,2026-06-27T05:07:09.977088,14.31029303,.001369,98.3499,159.6698,166.3579,193.7977,0,U,31113,999,207,.52536E-4,.97E-6,0
COSMO-SKYMED 1,2007-023A,2026-06-27T03:51:01.138176,14.97152827,.0001786,97.8860,10.1003,88.7581,271.3845,0,U,31598,999,3128,.26225E-3,.2969E-4,0
TERRASAR-X,2007-026A,2026-06-26T14:39:40.525344,15.19154138,.0001614,97.4450,185.1818,89.1456,270.9963,0,U,31698,999,5465,.45154721E-4,.881E-5,0
WORLDVIEW-1 (WV-1),2007-041A,2026-06-27T04:54:29.956896,15.24373133,.0001292,97.3883,297.8048,342.1421,17.9771,0,U,32060,999,4440,.27E-3,.6542E-4,0
YAOGAN-3,2007-055A,2026-06-27T04:41:12.344928,14.90818968,.0001818,97.8154,207.9746,81.2350,278.9074,0,U,32289,999,736,.21207E-3,.2031E-4,0
COSMO-SKYMED 2,2007-059A,2026-06-27T05:16:57.540288,14.82153265,.0001345,97.8888,1.6726,88.5095,271.6272,0,U,32376,999,349,.67113E-4,.482E-5,0
RADARSAT-2,2007-061A,2026-06-27T04:24:21.863232,14.29984065,.0001309,98.5778,184.9731,85.5744,274.5588,0,U,32382,999,96738,.58505E-4,.107E-5,0
CARTOSAT-2A,2008-021A,2026-06-27T04:37:57.415296,14.79253471,.001336,97.7633,226.5602,79.9851,280.2868,0,U,32783,999,98028,.11215E-3,.784E-5,0
HUANJING 1A (HJ-1A),2008-041A,2026-06-27T05:06:40.379040,14.84009946,.0020562,97.6682,163.6637,103.9337,256.4166,0,U,33320,999,95989,.18589E-3,.1502E-4,0
HUANJING 1B (HJ-1B),2008-041B,2026-06-27T04:28:43.496256,14.83333293,.0036958,97.6517,166.7797,148.3040,212.0410,0,U,33321,999,95989,.15402E-3,.1225E-4,0
GEOEYE 1,2008-042A,2026-06-27T04:39:19.071072,14.64634736,.0005233,98.1335,251.9998,40.7308,319.4285,0,U,33331,999,95161,.94382E-4,.454E-5,0
THEOS,2008-049A,2026-06-27T04:26:19.509792,14.20134376,.0001188,98.5573,235.1440,82.4740,277.6572,0,U,33396,999,91938,-.85104E-5,-.6E-6,0
COSMO-SKYMED 3,2008-054A,2026-06-27T04:04:03.753696,15.07005931,.0014461,97.8269,36.9061,229.8292,130.1669,0,U,33412,999,95844,.25522E-3,.3764E-4,0
YAOGAN-4,2008-061A,2026-06-27T02:01:05.068416,14.83218553,.0015315,97.9307,111.5212,43.0462,317.1947,0,U,33446,999,94713,.13028E-3,.1012E-4,0
GOSAT (IBUKI),2009-002A,2026-06-27T05:30:12.885984,14.67538212,.0001328,98.0901,289.1852,83.2646,276.8710,0,U,33492,999,93293,-.45761E-5,-.74E-6,0
DEIMOS-1,2009-041A,2026-06-27T05:23:37.353696,14.75247770,.0002229,97.7409,335.0176,117.7731,242.3705,0,U,35681,999,90836,.11057E-3,.7E-5,0
DUBAISAT-1,2009-041B,2026-06-26T22:11:30.026976,14.75138299,.0011262,98.0061,311.0761,45.6095,314.6034,0,U,35682,999,90653,.13843E-3,.884E-5,0
